{
  "norad_id": 44538,
  "name": "ZHUHAI-1 03D",
  "history": [
    {
      "epoch": "2026-03-28T21:50:07.640160Z",
      "apogee_km": 437.1075909129904,
      "perigee_km": 425.7706000546641,
      "latitude_deg": 3.927099644838631e-05,
      "longitude_deg": 80.64897461263568,
      "height_km": 438.14232560226174,
      "semi_major_axis_km": 6809.576095483827,
      "eccentricity": 0.00083243,
      "inclination_deg": 97.5275,
      "raan_deg": 234.5043,
      "arg_perigee_deg": 230.8984,
      "mean_anomaly_deg": 129.1525,
      "mean_motion_rev_day": 15.44979232
    },
    {
      "epoch": "2026-03-29T04:03:11.276928Z",
      "apogee_km": 437.0418177282563,
      "perigee_km": 425.70398374353044,
      "latitude_deg": -1.0667344209601934e-05,
      "longitude_deg": -12.603022890417092,
      "height_km": 438.1379257922698,
      "semi_major_axis_km": 6809.509900735893,
      "eccentricity": 0.0008325,
      "inclination_deg": 97.5276,
      "raan_deg": 234.7728,
      "arg_perigee_deg": 230.0924,
      "mean_anomaly_deg": 129.9593,
      "mean_motion_rev_day": 15.4500176
    },
    {
      "epoch": "2026-03-30T04:55:22.562400Z",
      "apogee_km": 436.79203024904655,
      "perigee_km": 425.4287581975668,
      "latitude_deg": -2.5644589527504298e-05,
      "longitude_deg": -25.597409518528316,
      "height_km": 438.15464018591103,
      "semi_major_axis_km": 6809.247394223306,
      "eccentricity": 0.0008344,
      "inclination_deg": 97.5279,
      "raan_deg": 235.8468,
      "arg_perigee_deg": 226.4279,
      "mean_anomaly_deg": 133.6277,
      "mean_motion_rev_day": 15.45091104
    },
    {
      "epoch": "2026-03-30T06:28:38.097696Z",
      "apogee_km": 436.7771220469367,
      "perigee_km": 425.40870415322115,
      "latitude_deg": -1.3814614767207656e-06,
      "longitude_deg": -48.90877649579891,
      "height_km": 438.15179353498155,
      "semi_major_axis_km": 6809.229913100079,
      "eccentricity": 0.00083478,
      "inclination_deg": 97.5279,
      "raan_deg": 235.914,
      "arg_perigee_deg": 226.2487,
      "mean_anomaly_deg": 133.8071,
      "mean_motion_rev_day": 15.45097054
    },
    {
      "epoch": "2026-03-30T14:14:55.461408Z",
      "apogee_km": 436.693560493688,
      "perigee_km": 425.3290919372348,
      "latitude_deg": -1.1458832813649555e-05,
      "longitude_deg": -165.46458734728517,
      "height_km": 438.1588466749234,
      "semi_major_axis_km": 6809.148326215461,
      "eccentricity": 0.0008345,
      "inclination_deg": 97.5279,
      "raan_deg": 236.2497,
      "arg_perigee_deg": 224.9783,
      "mean_anomaly_deg": 135.079,
      "mean_motion_rev_day": 15.45124824
    },
    {
      "epoch": "2026-03-30T22:01:12.318816Z",
      "apogee_km": 436.6193519849703,
      "perigee_km": 425.23799870862695,
      "latitude_deg": -1.9956664019438132e-05,
      "longitude_deg": 77.98181696959936,
      "height_km": 438.16393066213686,
      "semi_major_axis_km": 6809.065675346798,
      "eccentricity": 0.00083575,
      "inclination_deg": 97.5281,
      "raan_deg": 236.5855,
      "arg_perigee_deg": 223.8011,
      "mean_anomaly_deg": 136.2575,
      "mean_motion_rev_day": 15.45152957
    }
  ]
}